$$SOE
2460154.500000000, A.D. 2023-Jul-29 00:00:00.0000, -1.402145489032761E+08, 2.565088511563237E+08, 7.946594856427461E+07,
2460161.500000000, A.D. 2023-Aug-05 00:00:00.0000, -1.498296379573462E+08, 2.496657700162082E+08, 8.359645379564779E+07,
2460168.500000000, A.D. 2023-Aug-12 00:00:00.0000, -1.591831473963452E+08, 2.423867752667550E+08, 8.758099921601474E+07,
2460175.500000000, A.D. 2023-Aug-19 00:00:00.0000, -1.682587080695288E+08, 2.346845104135440E+08, 9.141260495000620E+07,
2460182.500000000, A.D. 2023-Aug-26 00:00:00.0000, -1.770403937626244E+08, 2.265723096918340E+08, 9.508453590363163E+07,
2460189.500000000, A.D. 2023-Sep-02 00:00:00.0000, -1.855127435359494E+08, 2.180641806470968E+08, 9.859031126842809E+07,
2460196.500000000, A.D. 2023-Sep-09 00:00:00.0000, -1.936607837295160E+08, 2.091747859724738E+08, 1.019237138303825E+08,
2460203.500000000, A.D. 2023-Sep-16 00:00:00.0000, -2.014700494690181E+08, 1.999194245301141E+08, 1.050787990636459E+08,
2460210.500000000, A.D. 2023-Sep-23 00:00:00.0000, -2.089266052559323E+08, 1.903140118253103E+08, 1.080499039928037E+08,
2460217.500000000, A.D. 2023-Sep-30 00:00:00.0000, -2.160170649799460E+08, 1.803750611036486E+08, 1.108316559496395E+08,
2460224.500000000, A.D. 2023-Oct-07 00:00:00.0000, -2.227286137075439E+08, 1.701196645095578E+08, 1.134189813956235E+08,
2460231.500000000, A.D. 2023-Oct-14 00:00:00.0000, -2.290490301977869E+08, 1.595654709784841E+08, 1.158071144426768E+08,
2460238.500000000, A.D. 2023-Oct-21 00:00:00.0000, -2.349667068930673E+08, 1.487306624385186E+08, 1.179916048933145E+08,
2460245.500000000, A.D. 2023-Oct-28 00:00:00.0000, -2.404706687970577E+08, 1.376339305470078E+08, 1.199683261033408E+08,
2460252.500000000, A.D. 2023-Nov-04 00:00:00.0000, -2.455505924807548E+08, 1.262944531702759E+08, 1.217334827154057E+08,
2460259.500000000, A.D. 2023-Nov-11 00:00:00.0000, -2.501968250165915E+08, 1.147318699863876E+08, 1.232836181894049E+08,
2460266.500000000, A.D. 2023-Nov-18 00:00:00.0000, -2.544004025933568E+08, 1.029662571213783E+08, 1.246156220907756E+08,
2460273.500000000, A.D. 2023-Nov-25 00:00:00.0000, -2.581530687096958E+08, 9.101810081593846E+07, 1.257267371176583E+08,
2460280.500000000, A.D. 2023-Dec-02 00:00:00.0000, -2.614472918856095E+08, 7.890827008806387E+07, 1.266145658489198E+08,
2460287.500000000, A.D. 2023-Dec-09 00:00:00.0000, -2.642762827773031E+08, 6.665798831293380E+07, 1.272770771851271E+08,
2460294.500000000, A.D. 2023-Dec-16 00:00:00.0000, -2.666340103650442E+08, 5.428880371695344E+07, 1.277126124374356E+08,
2460301.500000000, A.D. 2023-Dec-23 00:00:00.0000, -2.685152168153349E+08, 4.182255946064995E+07, 1.279198910618896E+08,
2460308.500000000, A.D. 2023-Dec-30 00:00:00.0000, -2.699154323014853E+08, 2.928136434498739E+07, 1.278980162134475E+08,
2460315.500000000, A.D. 2024-Jan-06 00:00:00.0000, -2.708309915001400E+08, 1.668756176086171E+07, 1.276464800551412E+08,
2460322.500000000, A.D. 2024-Jan-13 00:00:00.0000, -2.712590485378830E+08, 4.063695058518372E+06, 1.271651683567224E+08,
2460329.500000000, A.D. 2024-Jan-20 00:00:00.0000, -2.711975891021913E+08, -8.567527586664058E+06, 1.264543644957005E+08,
2460336.500000000, A.D. 2024-Jan-27 00:00:00.0000, -2.706454416791141E+08, -2.118326816577026E+07, 1.255147530722275E+08,
2460343.500000000, A.D. 2024-Feb-03 00:00:00.0000, -2.696022882840154E+08, -3.376059463195477E+07, 1.243474230768806E+08,
2460350.500000000, A.D. 2024-Feb-10 00:00:00.0000, -2.680686743417816E+08, -4.627651777550629E+07, 1.229538705366686E+08,
2460357.500000000, A.D. 2024-Feb-17 00:00:00.0000, -2.660460175026914E+08, -5.870802914839475E+07, 1.213360005931478E+08,
2460364.500000000, A.D. 2024-Feb-24 00:00:00.0000, -2.635366152781484E+08, -7.103213999932042E+07, 1.194961289721663E+08,
2460371.500000000, A.D. 2024-Mar-02 00:00:00.0000, -2.605436513854344E+08, -8.322592122358729E+07, 1.174369828013085E+08,
2460378.500000000, A.D. 2024-Mar-09 00:00:00.0000, -2.570712005803461E+08, -9.526654435602748E+07, 1.151617007195287E+08,
2460385.500000000, A.D. 2024-Mar-16 00:00:00.0000, -2.531242314992407E+08, -1.071313233671386E+08, 1.126738322219624E+08,
2460392.500000000, A.D. 2024-Mar-23 00:00:00.0000, -2.487086075296182E+08, -1.187977561020838E+08, 1.099773363032085E+08,
2460399.500000000, A.D. 2024-Mar-30 00:00:00.0000, -2.438310878649854E+08, -1.302435653304394E+08, 1.070765795658075E+08,
2460406.500000000, A.D. 2024-Apr-06 00:00:00.0000, -2.384993284061912E+08, -1.414467427096651E+08, 1.039763334620402E+08,
2460413.500000000, A.D. 2024-Apr-13 00:00:00.0000, -2.327218788825683E+08, -1.523855947507823E+08, 1.006817703824292E+08,
2460420.500000000, A.D. 2024-Apr-20 00:00:00.0000, -2.265081770697232E+08, -1.630387880185739E+08, 9.719845886512390E+07,
2460427.500000000, A.D. 2024-Apr-27 00:00:00.0000, -2.198685415424895E+08, -1.733853940247623E+08, 9.353235798222472E+07,
2460434.500000000, A.D. 2024-May-04 00:00:00.0000, -2.128141627963760E+08, -1.834049344097767E+08, 8.968981079977499E+07,
2460441.500000000, A.D. 2024-May-11 00:00:00.0000, -2.053570924252568E+08, -1.930774264026112E+08, 8.567753684898818E+07,
2460448.500000000, A.D. 2024-May-18 00:00:00.0000, -1.975102302050783E+08, -2.023834284154740E+08, 8.150262357679386E+07,
2460455.500000000, A.D. 2024-May-25 00:00:00.0000, -1.892873089945844E+08, -2.113040856486394E+08, 7.717251675188057E+07,
2460462.500000000, A.D. 2024-Jun-01 00:00:00.0000, -1.807028773351982E+08, -2.198211756235391E+08, 7.269500980190186E+07,
2460469.500000000, A.D. 2024-Jun-08 00:00:00.0000, -1.717722794565850E+08, -2.279171535202129E+08, 6.807823205068953E+07,
2460476.500000000, A.D. 2024-Jun-15 00:00:00.0000, -1.625116322544270E+08, -2.355751966182987E+08, 6.333063586202504E+07,
2460483.500000000, A.D. 2024-Jun-22 00:00:00.0000, -1.529378002233410E+08, -2.427792465004325E+08, 5.846098287918552E+07,
2460490.500000000, A.D. 2024-Jun-29 00:00:00.0000, -1.430683704529056E+08, -2.495140506647015E+08, 5.347832940858305E+07,
2460497.500000000, A.D. 2024-Jul-06 00:00:00.0000, -1.329216250386511E+08, -2.557652058413915E+08, 4.839201051009471E+07,
2460504.500000000, A.D. 2024-Jul-13 00:00:00.0000, -1.225165089696565E+08, -2.615192000121914E+08, 4.321162285951923E+07,
2460511.500000000, A.D. 2024-Jul-20 00:00:00.0000, -1.118725955013061E+08, -2.667634517992499E+08, 3.794700667751119E+07,
2460518.500000000, A.D. 2024-Jul-27 00:00:00.0000, -1.010100497036888E+08, -2.714863479948030E+08, 3.260822673041876E+07,
2460525.500000000, A.D. 2024-Aug-03 00:00:00.0000, -8.994958995942931E+07, -2.756772794143549E+08, 2.720555237700510E+07,
2460532.500000000, A.D. 2024-Aug-10 00:00:00.0000, -7.871244730280536E+07, -2.793266748861673E+08, 2.174943668193108E+07,
2460539.500000000, A.D. 2024-Aug-17 00:00:00.0000, -6.732032262363131E+07, -2.824260331703533E+08, 1.625049463854639E+07,
2460546.500000000, A.D. 2024-Aug-24 00:00:00.0000, -5.579534179707349E+07, -2.849679526525525E+08, 1.071948055028716E+07,
2460553.500000000, A.D. 2024-Aug-31 00:00:00.0000, -4.416000873035183E+07, -2.869461587005562E+08, 5.167264615000173E+06,
2460560.500000000, A.D. 2024-Sep-07 00:00:00.0000, -3.243715608123666E+07, -2.883555283895872E+08, -3.951912458183914E+05,
2460567.500000000, A.D. 2024-Sep-14 00:00:00.0000, -2.064989369696999E+07, -2.891921114416671E+08, -5.956858168738633E+06,
2460574.500000000, A.D. 2024-Sep-21 00:00:00.0000, -8.821556951583937E+06, -2.894531468177357E+08, -1.150666544569612E+07,
2460581.500000000, A.D. 2024-Sep-28 00:00:00.0000, 3.024344365617226E+06, -2.891370780507442E+08, -1.703352607584596E+07,
2460588.500000000, A.D. 2024-Oct-05 00:00:00.0000, 1.486418009675806E+07, -2.882435671890888E+08, -2.252636302311958E+07,
2460595.500000000, A.D. 2024-Oct-12 00:00:00.0000, 2.667425613770984E+07, -2.867735042440611E+08, -2.797413580992320E+07,
2460602.500000000, A.D. 2024-Oct-19 00:00:00.0000, 3.843087128609118E+07, -2.847290122871022E+08, -3.336586720560582E+07,
2460609.500000000, A.D. 2024-Oct-26 00:00:00.0000, 5.011037429378801E+07, -2.821134488980705E+08, -3.869066996242389E+07,
2460616.500000000, A.D. 2024-Nov-02 00:00:00.0000, 6.168922118964881E+07, -2.789314040586955E+08, -4.393777352639978E+07,
2460623.500000000, A.D. 2024-Nov-09 00:00:00.0000, 7.314403275473002E+07, -2.751886944516235E+08, -4.909655062728129E+07,
2460630.500000000, A.D. 2024-Nov-16 00:00:00.0000, 8.445165194092458E+07, -2.708923541561580E+08, -5.415654364816377E+07,
2460637.500000000, A.D. 2024-Nov-23 00:00:00.0000, 9.558920104137097E+07, -2.660506217874415E+08, -5.910749067882980E+07,
2460644.500000000, A.D. 2024-Nov-30 00:00:00.0000, 1.065341385863822E+08, -2.606729241360568E+08, -6.393935116981834E+07,
2460651.500000000, A.D. 2024-Dec-07 00:00:00.0000, 1.172643161510161E+08, -2.547698559235666E+08, -6.864233108612102E+07,
2460658.500000000, A.D. 2024-Dec-14 00:00:00.0000, 1.277580341539450E+08, -2.483531545053968E+08, -7.320690729296844E+07,
2460665.500000000, A.D. 2024-Dec-21 00:00:00.0000, 1.379940941011145E+08, -2.414356708344555E+08, -7.762385095921990E+07,
2460672.500000000, A.D. 2024-Dec-28 00:00:00.0000, 1.479518490262806E+08, -2.340313397435247E+08, -8.188425030109693E+07,
2460679.500000000, A.D. 2025-Jan-04 00:00:00.0000, 1.576112545160276E+08, -2.261551472857429E+08, -8.597953261581670E+07,
2460686.500000000, A.D. 2025-Jan-11 00:00:00.0000, 1.669529182967023E+08, -2.178230936124522E+08, -8.990148521487048E+07,
2460693.500000000, A.D. 2025-Jan-18 00:00:00.0000, 1.759581472734034E+08, -2.090521524630858E+08, -9.364227516596344E+07,
2460700.500000000, A.D. 2025-Jan-25 00:00:00.0000, 1.846089920832244E+08, -1.998602279124006E+08, -9.719446782890314E+07,
2460707.500000000, A.D. 2025-Feb-01 00:00:00.0000, 1.928882891846691E+08, -1.902661085908688E+08, -1.005510441367555E+08,
2460714.500000000, A.D. 2025-Feb-08 00:00:00.0000, 2.007797003882891E+08, -1.802894195584795E+08, -1.037054165653943E+08,
2460721.500000000, A.D. 2025-Feb-15 00:00:00.0000, 2.082677497173470E+08, -1.699505720638810E+08, -1.066514437420987E+08,
$$EOE